[
    {
        "Altitude(m)": 555994.3970882121,
        "Argument of Periapsis(deg)": 0.006622991110713501,
        "Eccentricity": 0.0,
        "Inclination(deg)": 53.0,
        "Latitude(deg)": -9.625434003094439,
        "Longitude(deg)": -23.471028192961704,
        "Mean Anomaly(deg)": -168.09020713242245,
        "RAAN(deg)": 249.990143368528,
        "Satellite Name": "Starlink Shell 1 1111",
        "Satellite Number": 1111,
        "Semi-Major Axis(m)": 6931778.249405717,
        "Time(s)": 190
    },
    {
        "Altitude(m)": 556111.5031315986,
        "Argument of Periapsis(deg)": 0.0069715695902247375,
        "Eccentricity": 0.0,
        "Inclination(deg)": 53.0,
        "Latitude(deg)": -10.12469284405202,
        "Longitude(deg)": -23.124501823124106,
        "Mean Anomaly(deg)": -167.46337592886573,
        "RAAN(deg)": 249.9896245984506,
        "Satellite Name": "Starlink Shell 1 1111",
        "Satellite Number": 1111,
        "Semi-Major Axis(m)": 6931778.249405717,
        "Time(s)": 200
    },
    {
        "Altitude(m)": 556230.9752403725,
        "Argument of Periapsis(deg)": 0.007320148069735974,
        "Eccentricity": 0.0,
        "Inclination(deg)": 53.0,
        "Latitude(deg)": -10.62346520972905,
        "Longitude(deg)": -22.776786072276522,
        "Mean Anomaly(deg)": -166.83654472530893,
        "RAAN(deg)": 249.9891058283731,
        "Satellite Name": "Starlink Shell 1 1111",
        "Satellite Number": 1111,
        "Semi-Major Axis(m)": 6931778.249405717,
        "Time(s)": 210
    },
    {
        "Altitude(m)": 556352.7786746529,
        "Argument of Periapsis(deg)": 0.007668726549247212,
        "Eccentricity": 0.0,
        "Inclination(deg)": 53.0,
        "Latitude(deg)": -11.121725712318,
        "Longitude(deg)": -22.427818107322068,
        "Mean Anomaly(deg)": -166.2097135217523,
        "RAAN(deg)": 249.98858705829562,
        "Satellite Name": "Starlink Shell 1 1111",
        "Satellite Number": 1111,
        "Semi-Major Axis(m)": 6931778.249405717,
        "Time(s)": 220
    },
    {
        "Altitude(m)": 556476.8775134986,
        "Argument of Periapsis(deg)": 0.00801730502875845,
        "Eccentricity": 0.0,
        "Inclination(deg)": 53.0,
        "Latitude(deg)": -11.619448703365874,
        "Longitude(deg)": -22.077534557975554,
        "Mean Anomaly(deg)": -165.58288231819554,
        "RAAN(deg)": 249.98806828821816,
        "Satellite Name": "Starlink Shell 1 1111",
        "Satellite Number": 1111,
        "Semi-Major Axis(m)": 6931778.249405717,
        "Time(s)": 230
    },
    {
        "Altitude(m)": 556603.2346700594,
        "Argument of Periapsis(deg)": 0.008365883508269684,
        "Eccentricity": 0.0,
        "Inclination(deg)": 53.0,
        "Latitude(deg)": -12.11660825946529,
        "Longitude(deg)": -21.725870986027765,
        "Mean Anomaly(deg)": -164.95605111463885,
        "RAAN(deg)": 249.9875495181407,
        "Satellite Name": "Starlink Shell 1 1111",
        "Satellite Number": 1111,
        "Semi-Major Axis(m)": 6931778.249405717,
        "Time(s)": 240
    },
    {
        "Altitude(m)": 556731.811907324,
        "Argument of Periapsis(deg)": 0.008714461987780921,
        "Eccentricity": 0.0,
        "Inclination(deg)": 53.0,
        "Latitude(deg)": -12.61317816769463,
        "Longitude(deg)": -21.372762867413424,
        "Mean Anomaly(deg)": -164.3292199110821,
        "RAAN(deg)": 249.9870307480632,
        "Satellite Name": "Starlink Shell 1 1111",
        "Satellite Number": 1111,
        "Semi-Major Axis(m)": 6931778.249405717,
        "Time(s)": 250
    },
    {
        "Altitude(m)": 556862.5698544629,
        "Argument of Periapsis(deg)": 0.009063040467292158,
        "Eccentricity": 0.0,
        "Inclination(deg)": 53.0,
        "Latitude(deg)": -13.109131910786665,
        "Longitude(deg)": -21.01814506134625,
        "Mean Anomaly(deg)": -163.70238870752536,
        "RAAN(deg)": 249.98651197798574,
        "Satellite Name": "Starlink Shell 1 1111",
        "Satellite Number": 1111,
        "Semi-Major Axis(m)": 6931778.249405717,
        "Time(s)": 260
    },
    {
        "Altitude(m)": 556995.4680236699,
        "Argument of Periapsis(deg)": 0.009411618946803396,
        "Eccentricity": 0.0,
        "Inclination(deg)": 53.0,
        "Latitude(deg)": -13.604442652018378,
        "Longitude(deg)": -20.661951279402388,
        "Mean Anomaly(deg)": -163.0755575039687,
        "RAAN(deg)": 249.98599320790825,
        "Satellite Name": "Starlink Shell 1 1111",
        "Satellite Number": 1111,
        "Semi-Major Axis(m)": 6931778.249405717,
        "Time(s)": 270
    },
    {
        "Altitude(m)": 557130.46482763,
        "Argument of Periapsis(deg)": 0.009760197426314633,
        "Eccentricity": 0.0,
        "Inclination(deg)": 53.0,
        "Latitude(deg)": -14.099083219810883,
        "Longitude(deg)": -20.30411506743642,
        "Mean Anomaly(deg)": -162.44872630041195,
        "RAAN(deg)": 249.98547443783076,
        "Satellite Name": "Starlink Shell 1 1111",
        "Satellite Number": 1111,
        "Semi-Major Axis(m)": 6931778.249405717,
        "Time(s)": 280
    },
    {
        "Altitude(m)": 557267.5175974637,
        "Argument of Periapsis(deg)": 0.01010877590582587,
        "Eccentricity": 0.0,
        "Inclination(deg)": 53.0,
        "Latitude(deg)": -14.593026092021534,
        "Longitude(deg)": -19.94456927459748,
        "Mean Anomaly(deg)": -161.8218950968553,
        "RAAN(deg)": 249.98495566775333,
        "Satellite Name": "Starlink Shell 1 1111",
        "Satellite Number": 1111,
        "Semi-Major Axis(m)": 6931778.249405717,
        "Time(s)": 290
    },
    {
        "Altitude(m)": 557406.582601242,
        "Argument of Periapsis(deg)": 0.010457354385337106,
        "Eccentricity": 0.0,
        "Inclination(deg)": 53.0,
        "Latitude(deg)": -15.086243379920429,
        "Longitude(deg)": -19.58324552233287,
        "Mean Anomaly(deg)": -161.1950638932985,
        "RAAN(deg)": 249.98443689767583,
        "Satellite Name": "Starlink Shell 1 1111",
        "Satellite Number": 1111,
        "Semi-Major Axis(m)": 6931778.249405717,
        "Time(s)": 300
    },
    {
        "Altitude(m)": 557547.6150630114,
        "Argument of Periapsis(deg)": 0.010805932864848343,
        "Eccentricity": 0.0,
        "Inclination(deg)": 53.0,
        "Latitude(deg)": -15.578706811838538,
        "Longitude(deg)": -19.220075186270954,
        "Mean Anomaly(deg)": -160.56823268974182,
        "RAAN(deg)": 249.98391812759834,
        "Satellite Name": "Starlink Shell 1 1111",
        "Satellite Number": 1111,
        "Semi-Major Axis(m)": 6931778.249405717,
        "Time(s)": 310
    },
    {
        "Altitude(m)": 557690.5691823273,
        "Argument of Periapsis(deg)": 0.01115451134435958,
        "Eccentricity": 0.0,
        "Inclination(deg)": 53.0,
        "Latitude(deg)": -16.07038771647313,
        "Longitude(deg)": -18.854988865255798,
        "Mean Anomaly(deg)": -159.94140148618513,
        "RAAN(deg)": 249.98339935752094,
        "Satellite Name": "Starlink Shell 1 1111",
        "Satellite Number": 1111,
        "Semi-Major Axis(m)": 6931778.249405717,
        "Time(s)": 320
    },
    {
        "Altitude(m)": 557835.398154303,
        "Argument of Periapsis(deg)": 0.011503089823870818,
        "Eccentricity": 0.0,
        "Inclination(deg)": 53.0,
        "Latitude(deg)": -16.561257005838623,
        "Longitude(deg)": -18.48791585043114,
        "Mean Anomaly(deg)": -159.31457028262844,
        "RAAN(deg)": 249.98288058744345,
        "Satellite Name": "Starlink Shell 1 1111",
        "Satellite Number": 1111,
        "Semi-Major Axis(m)": 6931778.249405717,
        "Time(s)": 330
    },
    {
        "Altitude(m)": 557982.0541901351,
        "Argument of Periapsis(deg)": 0.011851668303382053,
        "Eccentricity": 0.0,
        "Inclination(deg)": 53.0,
        "Latitude(deg)": -17.05128515785348,
        "Longitude(deg)": -18.11878510727123,
        "Mean Anomaly(deg)": -158.68773907907166,
        "RAAN(deg)": 249.98236181736593,
        "Satellite Name": "Starlink Shell 1 1111",
        "Satellite Number": 1111,
        "Semi-Major Axis(m)": 6931778.249405717,
        "Time(s)": 340
    },
    {
        "Altitude(m)": 558130.4885381031,
        "Argument of Periapsis(deg)": 0.012200246782893292,
        "Eccentricity": 0.0,
        "Inclination(deg)": 53.0,
        "Latitude(deg)": -17.540442198546877,
        "Longitude(deg)": -17.747524744842224,
        "Mean Anomaly(deg)": -158.06090787551494,
        "RAAN(deg)": 249.9818430472885,
        "Satellite Name": "Starlink Shell 1 1111",
        "Satellite Number": 1111,
        "Semi-Major Axis(m)": 6931778.249405717,
        "Time(s)": 350
    },
    {
        "Altitude(m)": 558280.651505079,
        "Argument of Periapsis(deg)": 0.012548825262404526,
        "Eccentricity": 0.0,
        "Inclination(deg)": 53.0,
        "Latitude(deg)": -18.02869768387508,
        "Longitude(deg)": -17.37406148519828,
        "Mean Anomaly(deg)": -157.43407667195825,
        "RAAN(deg)": 249.981324277211,
        "Satellite Name": "Starlink Shell 1 1111",
        "Satellite Number": 1111,
        "Semi-Major Axis(m)": 6931778.249405717,
        "Time(s)": 360
    },
    {
        "Altitude(m)": 558432.4924784246,
        "Argument of Periapsis(deg)": 0.012897403741915765,
        "Eccentricity": 0.0,
        "Inclination(deg)": 53.0,
        "Latitude(deg)": -18.516020681138155,
        "Longitude(deg)": -16.998321645822912,
        "Mean Anomaly(deg)": -156.8072454684016,
        "RAAN(deg)": 249.98080550713354,
        "Satellite Name": "Starlink Shell 1 1111",
        "Satellite Number": 1111,
        "Semi-Major Axis(m)": 6931778.249405717,
        "Time(s)": 370
    }
]